{
  "type": "FeatureCollection",
  "features": [
    {
      "type": "Feature",
      "properties": {
        "norad_id": 66507,
        "name": "STARLINK-34767",
        "group": "last-30-days",
        "lat": -8.30034936688744,
        "lon": 167.85168161648838,
        "alt_km": 360.9242287118195,
        "timestamp": "2025-12-03T22:42:31.476033+00:00",
        "meta_object_name": "STARLINK-34767",
        "meta_object_id": "2025-263Y",
        "meta_epoch": "2025-12-03T12:00:02.998944",
        "meta_mean_motion": 15.71353201,
        "meta_eccentricity": 0.0001783,
        "meta_inclination": 42.9992,
        "meta_ra_of_asc_node": 179.5482,
        "meta_arg_of_pericenter": 265.349,
        "meta_mean_anomaly": 77.0489,
        "meta_ephemeris_type": 0,
        "meta_classification_type": "U",
        "meta_norad_cat_id": 66507,
        "meta_element_set_no": 999,
        "meta_rev_at_epoch": 415,
        "meta_bstar": -0.016653,
        "meta_mean_motion_dot": -0.01935035,
        "meta_mean_motion_ddot": 0,
        "tle_line1": "1 66507U 25263Y   25337.50003471 -.01935035  00000+0 -16653-1 0  9991",
        "tle_line2": "2 66507  42.9992 179.5482 0001783 265.3490  77.0489 15.71353201  4158"
      },
      "geometry": {
        "type": "Point",
        "coordinates": [
          167.85168161648838,
          -8.30034936688744
        ]
      }
    },
    {
      "type": "Feature",
      "properties": {
        "norad_id": 66508,
        "name": "STARLINK-35608",
        "group": "last-30-days",
        "lat": -4.409181534709624,
        "lon": 172.09864556723804,
        "alt_km": 360.6549488403489,
        "timestamp": "2025-12-03T22:42:31.476041+00:00",
        "meta_object_name": "STARLINK-35608",
        "meta_object_id": "2025-263Z",
        "meta_epoch": "2025-12-03T12:00:02.998944",
        "meta_mean_motion": 15.71355916,
        "meta_eccentricity": 0.0001763,
        "meta_inclination": 42.9989,
        "meta_ra_of_asc_node": 179.5342,
        "meta_arg_of_pericenter": 264.0484,
        "meta_mean_anomaly": 84.0985,
        "meta_ephemeris_type": 0,
        "meta_classification_type": "U",
        "meta_norad_cat_id": 66508,
        "meta_element_set_no": 999,
        "meta_rev_at_epoch": 415,
        "meta_bstar": -0.016677,
        "meta_mean_motion_dot": -0.01937663,
        "meta_mean_motion_ddot": 0,
        "tle_line1": "1 66508U 25263Z   25337.50003471 -.01937663  00000+0 -16677-1 0  9997",
        "tle_line2": "2 66508  42.9989 179.5342 0001763 264.0484  84.0985 15.71355916  4151"
      },
      "geometry": {
        "type": "Point",
        "coordinates": [
          172.09864556723804,
          -4.409181534709624
        ]
      }
    },
    {
      "type": "Feature",
      "properties": {
        "norad_id": 66509,
        "name": "STARLINK-35598",
        "group": "last-30-days",
        "lat": 0.8129959558746505,
        "lon": 177.6977321015342,
        "alt_km": 360.2543024243241,
        "timestamp": "2025-12-03T22:42:31.476050+00:00",
        "meta_object_name": "STARLINK-35598",
        "meta_object_id": "2025-263AA",
        "meta_epoch": "2025-12-03T12:00:02.998944",
        "meta_mean_motion": 15.71357849,
        "meta_eccentricity": 0.0001833,
        "meta_inclination": 42.9994,
        "meta_ra_of_asc_node": 179.514,
        "meta_arg_of_pericenter": 262.404,
        "meta_mean_anomaly": 93.4119,
        "meta_ephemeris_type": 0,
        "meta_classification_type": "U",
        "meta_norad_cat_id": 66509,
        "meta_element_set_no": 999,
        "meta_rev_at_epoch": 415,
        "meta_bstar": -0.016735,
        "meta_mean_motion_dot": -0.0194378,
        "meta_mean_motion_ddot": 0,
        "tle_line1": "1 66509U 25263AA  25337.50003471 -.01943780  00000+0 -16735-1 0  9990",
        "tle_line2": "2 66509  42.9994 179.5140 0001833 262.4040  93.4119 15.71357849  4152"
      },
      "geometry": {
        "type": "Point",
        "coordinates": [
          177.6977321015342,
          0.8129959558746505
        ]
      }
    },
    {
      "type": "Feature",
      "properties": {
        "norad_id": 66510,
        "name": "STARLINK-35600",
        "group": "last-30-days",
        "lat": -3.105895329333037,
        "lon": 173.50159083255286,
        "alt_km": 360.59846333264886,
        "timestamp": "2025-12-03T22:42:31.476059+00:00",
        "meta_object_name": "STARLINK-35600",
        "meta_object_id": "2025-263AB",
        "meta_epoch": "2025-12-03T12:00:02.998944",
        "meta_mean_motion": 15.71353643,
        "meta_eccentricity": 0.0001784,
        "meta_inclination": 42.9991,
        "meta_ra_of_asc_node": 179.5288,
        "meta_arg_of_pericenter": 262.2521,
        "meta_mean_anomaly": 87.8135,
        "meta_ephemeris_type": 0,
        "meta_classification_type": "U",
        "meta_norad_cat_id": 66510,
        "meta_element_set_no": 999,
        "meta_rev_at_epoch": 415,
        "meta_bstar": -0.016663,
        "meta_mean_motion_dot": -0.01936089,
        "meta_mean_motion_ddot": 0,
        "tle_line1": "1 66510U 25263AB  25337.50003471 -.01936089  00000+0 -16663-1 0  9996",
        "tle_line2": "2 66510  42.9991 179.5288 0001784 262.2521  87.8135 15.71353643  4154"
      },
      "geometry": {
        "type": "Point",
        "coordinates": [
          173.50159083255286,
          -3.105895329333037
        ]
      }
    },
    {
      "type": "Feature",
      "properties": {
        "norad_id": 66511,
        "name": "STARLINK-35444",
        "group": "last-30-days",
        "lat": -0.49374871964341277,
        "lon": 176.3000567483559,
        "alt_km": 360.40541119630234,
        "timestamp": "2025-12-03T22:42:31.476069+00:00",
        "meta_object_name": "STARLINK-35444",
        "meta_object_id": "2025-263AC",
        "meta_epoch": "2025-12-03T12:00:02.998944",
        "meta_mean_motion": 15.71354657,
        "meta_eccentricity": 0.0001748,
        "meta_inclination": 42.9994,
        "meta_ra_of_asc_node": 179.5188,
        "meta_arg_of_pericenter": 260.9008,
        "meta_mean_anomaly": 92.9993,
        "meta_ephemeris_type": 0,
        "meta_classification_type": "U",
        "meta_norad_cat_id": 66511,
        "meta_element_set_no": 999,
        "meta_rev_at_epoch": 415,
        "meta_bstar": -0.016678,
        "meta_mean_motion_dot": -0.01937617,
        "meta_mean_motion_ddot": 0,
        "tle_line1": "1 66511U 25263AC  25337.50003471 -.01937617  00000+0 -16678-1 0  9991",
        "tle_line2": "2 66511  42.9994 179.5188 0001748 260.9008  92.9993 15.71354657  4157"
      },
      "geometry": {
        "type": "Point",
        "coordinates": [
          176.3000567483559,
          -0.49374871964341277
        ]
      }
    },
    {
      "type": "Feature",
      "properties": {
        "norad_id": 66512,
        "name": "STARLINK-35366",
        "group": "last-30-days",
        "lat": 2.119161961644747,
        "lon": 179.09653120478896,
        "alt_km": 360.1715073042551,
        "timestamp": "2025-12-03T22:42:31.476078+00:00",
        "meta_object_name": "STARLINK-35366",
        "meta_object_id": "2025-263AD",
        "meta_epoch": "2025-12-03T12:00:02.998944",
        "meta_mean_motion": 15.71356399,
        "meta_eccentricity": 0.0001773,
        "meta_inclination": 42.999,
        "meta_ra_of_asc_node": 179.5095,
        "meta_arg_of_pericenter": 260.7111,
        "meta_mean_anomaly": 97.0226,
        "meta_ephemeris_type": 0,
        "meta_classification_type": "U",
        "meta_norad_cat_id": 66512,
        "meta_element_set_no": 999,
        "meta_rev_at_epoch": 415,
        "meta_bstar": -0.016715,
        "meta_mean_motion_dot": -0.01941594,
        "meta_mean_motion_ddot": 0,
        "tle_line1": "1 66512U 25263AD  25337.50003471 -.01941594  00000+0 -16715-1 0  9993",
        "tle_line2": "2 66512  42.9990 179.5095 0001773 260.7111  97.0226 15.71356399  4152"
      },
      "geometry": {
        "type": "Point",
        "coordinates": [
          179.09653120478896,
          2.119161961644747
        ]
      }
    },
    {
      "type": "Feature",
      "properties": {
        "norad_id": 66513,
        "name": "STARLINK-35692",
        "group": "last-30-days",
        "lat": -1.7998593400196632,
        "lon": 174.90201803282483,
        "alt_km": 360.50359742930596,
        "timestamp": "2025-12-03T22:42:31.476087+00:00",
        "meta_object_name": "STARLINK-35692",
        "meta_object_id": "2025-263AE",
        "meta_epoch": "2025-12-03T12:00:02.998944",
        "meta_mean_motion": 15.7135406,
        "meta_eccentricity": 0.0001871,
        "meta_inclination": 42.9987,
        "meta_ra_of_asc_node": 179.5235,
        "meta_arg_of_pericenter": 261.7649,
        "meta_mean_anomaly": 90.2179,
        "meta_ephemeris_type": 0,
        "meta_classification_type": "U",
        "meta_norad_cat_id": 66513,
        "meta_element_set_no": 999,
        "meta_rev_at_epoch": 415,
        "meta_bstar": -0.016675,
        "meta_mean_motion_dot": -0.01937441,
        "meta_mean_motion_ddot": 0,
        "tle_line1": "1 66513U 25263AE  25337.50003471 -.01937441  00000+0 -16675-1 0  9995",
        "tle_line2": "2 66513  42.9987 179.5235 0001871 261.7649  90.2179 15.71354060  4156"
      },
      "geometry": {
        "type": "Point",
        "coordinates": [
          174.90201803282483,
          -1.7998593400196632
        ]
      }
    }
  ]
}